[{"OBJECT_NAME":"STARLINK-5440","OBJECT_ID":"2022-175AD","EPOCH":"2026-03-09T04:00:52.611840","MEAN_MOTION":15.08837177,"ECCENTRICITY":0.00013639,"INCLINATION":53.2198,"RA_OF_ASC_NODE":351.3345,"ARG_OF_PERICENTER":87.6535,"MEAN_ANOMALY":272.4613,"EPHEMERIS_TYPE":0,"CLASSIFICATION_TYPE":"U","NORAD_CAT_ID":54785,"ELEMENT_SET_NO":999,"REV_AT_EPOCH":18061,"BSTAR":1.4242573e-5,"MEAN_MOTION_DOT":-6.1e-7,"MEAN_MOTION_DDOT":0},{"OBJECT_NAME":"CZ-6A DEB","OBJECT_ID":"2024-140RN","EPOCH":"2026-03-09T09:36:23.350464","MEAN_MOTION":14.99974811,"ECCENTRICITY":0.0047719,"INCLINATION":88.1445,"RA_OF_ASC_NODE":217.6461,"ARG_OF_PERICENTER":172.1525,"MEAN_ANOMALY":188.0467,"EPHEMERIS_TYPE":0,"CLASSIFICATION_TYPE":"U","NORAD_CAT_ID":61168,"ELEMENT_SET_NO":999,"REV_AT_EPOCH":8322,"BSTAR":0.0063622011,"MEAN_MOTION_DOT":0.00081758,"MEAN_MOTION_DDOT":0}]
